[{"OBJECT_NAME":"TISAT 1","OBJECT_ID":"2010-035E","EPOCH":"2026-03-09T18:10:07.877568","MEAN_MOTION":15.27628633,"ECCENTRICITY":0.00013432,"INCLINATION":98.0645,"RA_OF_ASC_NODE":6.8512,"ARG_OF_PERICENTER":159.303,"MEAN_ANOMALY":200.8262,"EPHEMERIS_TYPE":0,"CLASSIFICATION_TYPE":"U","NORAD_CAT_ID":36799,"ELEMENT_SET_NO":999,"REV_AT_EPOCH":85250,"BSTAR":0.00091004793,"MEAN_MOTION_DOT":0.00024554,"MEAN_MOTION_DDOT":0},{"OBJECT_NAME":"STARLINK-31214","OBJECT_ID":"2024-019U","EPOCH":"2026-03-09T19:27:14.785056","MEAN_MOTION":15.27564833,"ECCENTRICITY":0.00020739,"INCLINATION":42.9996,"RA_OF_ASC_NODE":247.9824,"ARG_OF_PERICENTER":166.5054,"MEAN_ANOMALY":193.5853,"EPHEMERIS_TYPE":0,"CLASSIFICATION_TYPE":"U","NORAD_CAT_ID":58871,"ELEMENT_SET_NO":999,"REV_AT_EPOCH":11908,"BSTAR":0.0001104601,"MEAN_MOTION_DOT":2.777e-5,"MEAN_MOTION_DDOT":0}]
