TISAT 1                 
1 36799U 10035E   26068.75703561  .00024554  00000+0  91005-3 0  9996
2 36799  98.0645   6.8512 0001343 159.3030 200.8262 15.27628633852505
STARLINK-31214          
1 58871U 24019U   26068.81058779  .00002777  00000+0  11046-3 0  9999
2 58871  42.9996 247.9824 0002074 166.5054 193.5853 15.27564833119083
